IRIDIUM 39              
1 25042U 97069D   26010.73208817  .00000745  00000+0  18857-3 0  9996
2 25042  86.3934 122.1996 0016675 339.2638  20.7887 14.49559336479020
IRIDIUM 38              
1 25043U 97069E   26010.84900122  .00000527  00000+0  16656-3 0  9990
2 25043  86.3994 145.8694 0003674 115.4799 244.6780 14.38350162475806
IRIDIUM 42              
1 25077U 97077A   26010.90228687  .00000454  00000+0  14779-3 0  9995
2 25077  86.4000 152.2718 0002461 110.3933 249.7528 14.36564162471018
IRIDIUM 44              
1 25078U 97077B   26010.85134383  .00000420  00000+0  12585-3 0  9995
2 25078  86.3990 133.6725 0003801  80.7688 279.3941 14.40462186473594
IRIDIUM 45              
1 25104U 97082A   26010.34495721  .00024962  00000+0  67593-3 0  9997
2 25104  86.3548 306.5613 0090689 270.2734  88.8125 15.33377282483658
IRIDIUM 24              
1 25105U 97082B   26010.97067557  .00000522  00000+0  15193-3 0  9994
2 25105  86.3921 352.1471 0013416 107.7292 252.5374 14.42363820473162
IRIDIUM 51              
1 25262U 98018A   26010.86040207  .00140160  00000+0  11103-2 0  9998
2 25262  86.3717 311.2167 0047404 151.2240 209.1661 15.69365233479206
IRIDIUM 57              
1 25273U 98019B   26010.82823547  .00000330  00000+0  10679-3 0  9995
2 25273  86.3929  58.1850 0002316  93.9745 266.1717 14.36076380454588
